FLOCK 4BE-17            
1 60492U 24149AA  26193.75429782  .00011033  00000+0  27380-3 0  9996
2 60492  97.3777 277.3369 0004105 152.2435 207.9031 15.40520565106194
FLOCK 4BE-22            
1 60494U 24149AC  26193.77758919  .00012381  00000+0  29292-3 0  9998
2 60494  97.3736 277.5931 0004562 161.1009 199.0408 15.41936586106241
FLOCK 4BE-34            
1 60495U 24149AD  26193.79509814  .00011602  00000+0  27495-3 0  9997
2 60495  97.3783 278.4489 0004595 167.4136 192.7227 15.41901883106272
FLOCK 4BE-32            
1 60497U 24149AF  26193.81091813  .00014125  00000+0  32184-3 0  9991
2 60497  97.3726 278.0282 0004650 165.6683 194.4697 15.43033515106288
FLOCK 4BE-11            
1 60501U 24149AK  26193.79215935  .00014040  00000+0  31155-3 0  9990
2 60501  97.3700 278.2646 0004819 164.5778 195.5618 15.43823884106306
FLOCK 4BE-24            
1 60505U 24149AP  26193.77619215  .00015869  00000+0  34929-3 0  9993
2 60505  97.3717 278.5154 0004802 176.9506 183.1772 15.44037965106316
FLOCK 4BE-29            
1 60509U 24149AT  26193.76923590  .00036693  00000+0  76848-3 0  9994
2 60509  97.3809 280.0431 0003286 178.7826 181.3431 15.45342130106369
FLOCK 4BE-2             
1 60511U 24149AV  26193.04148874  .00044830  00000+0  65247-3 0  9995
2 60511  97.3833 281.0962 0005144 180.9826 179.1420 15.55608654106369
FLOCK 4BE-13            
1 60512U 24149AW  26193.78489250  .00010533  00000+0  24430-3 0  9995
2 60512  97.3723 278.4733 0004930 162.9128 197.2286 15.42573518106313
FLOCK 4BE-27            
1 60513U 24149AX  26193.75397669  .00006260  00000+0  18739-3 0  9992
2 60513  97.3827 275.6235 0003725 189.8729 170.2442 15.34889413106063
FLOCK 4BE-9             
1 60514U 24149AY  26193.67171821  .00009825  00000+0  23602-3 0  9999
2 60514  97.3800 278.2012 0003563 176.7939 183.3331 15.41542438106248
FLOCK 4BE-6             
1 60516U 24149BA  26193.78608034  .00010444  00000+0  26142-3 0  9995
2 60516  97.3792 277.6273 0004166 181.2202 178.9035 15.40274107106218
FLOCK 4BE-14            
1 60517U 24149BB  26193.74539639  .00012839  00000+0  30497-3 0  9994
2 60517  97.3699 277.7467 0005084 184.6362 175.4839 15.41804338106260
FLOCK 4BE-1             
1 60518U 24149BC  26193.73438582  .00012502  00000+0  28117-3 0  9992
2 60518  97.3783 279.1056 0004786 183.5016 176.6199 15.43453585106311
FLOCK 4BE-28            
1 60519U 24149BD  26193.77384477  .00037733  00000+0  76836-3 0  9994
2 60519  97.3756 279.9525 0004725 182.0589 178.0642 15.46154633106395
FLOCK 4BE-5             
1 60559U 24149CV  26193.74751861  .00011058  00000+0  27018-3 0  9990
2 60559  97.3850 278.0047 0003803 178.8953 181.2302 15.40994442106211
