{"fetched_at":"2026-07-13T07:47:56.614Z","source":"https://celestrak.org/NORAD/elements/gp.php?GROUP=planet&FORMAT=JSON","constellation":"superdove","records":[{"OBJECT_NAME":"FLOCK 4BE-17","OBJECT_ID":"2024-149AA","EPOCH":"2026-07-12T18:06:11.331648","CLASSIFICATION_TYPE":"U","MEAN_MOTION":15.40520565,"ECCENTRICITY":0.0004105,"INCLINATION":97.3777,"RA_OF_ASC_NODE":277.3369,"ARG_OF_PERICENTER":152.2435,"MEAN_ANOMALY":207.9031,"EPHEMERIS_TYPE":0,"NORAD_CAT_ID":60492,"ELEMENT_SET_NO":999,"REV_AT_EPOCH":10619,"BSTAR":0.0002738,"MEAN_MOTION_DOT":0.00011033,"MEAN_MOTION_DDOT":0},{"OBJECT_NAME":"FLOCK 4BE-22","OBJECT_ID":"2024-149AC","EPOCH":"2026-07-12T18:39:43.706016","CLASSIFICATION_TYPE":"U","MEAN_MOTION":15.41936586,"ECCENTRICITY":0.0004562,"INCLINATION":97.3736,"RA_OF_ASC_NODE":277.5931,"ARG_OF_PERICENTER":161.1009,"MEAN_ANOMALY":199.0408,"EPHEMERIS_TYPE":0,"NORAD_CAT_ID":60494,"ELEMENT_SET_NO":999,"REV_AT_EPOCH":10624,"BSTAR":0.00029292,"MEAN_MOTION_DOT":0.00012381,"MEAN_MOTION_DDOT":0},{"OBJECT_NAME":"FLOCK 4BE-34","OBJECT_ID":"2024-149AD","EPOCH":"2026-07-12T19:04:56.479296","CLASSIFICATION_TYPE":"U","MEAN_MOTION":15.41901883,"ECCENTRICITY":0.0004595,"INCLINATION":97.3783,"RA_OF_ASC_NODE":278.4489,"ARG_OF_PERICENTER":167.4136,"MEAN_ANOMALY":192.7227,"EPHEMERIS_TYPE":0,"NORAD_CAT_ID":60495,"ELEMENT_SET_NO":999,"REV_AT_EPOCH":10627,"BSTAR":0.00027495,"MEAN_MOTION_DOT":0.00011602,"MEAN_MOTION_DDOT":0},{"OBJECT_NAME":"FLOCK 4BE-32","OBJECT_ID":"2024-149AF","EPOCH":"2026-07-12T19:27:43.326432","CLASSIFICATION_TYPE":"U","MEAN_MOTION":15.43033515,"ECCENTRICITY":0.000465,"INCLINATION":97.3726,"RA_OF_ASC_NODE":278.0282,"ARG_OF_PERICENTER":165.6683,"MEAN_ANOMALY":194.4697,"EPHEMERIS_TYPE":0,"NORAD_CAT_ID":60497,"ELEMENT_SET_NO":999,"REV_AT_EPOCH":10628,"BSTAR":0.00032184,"MEAN_MOTION_DOT":0.00014125,"MEAN_MOTION_DDOT":0},{"OBJECT_NAME":"FLOCK 4BE-11","OBJECT_ID":"2024-149AK","EPOCH":"2026-07-12T19:00:42.567840","CLASSIFICATION_TYPE":"U","MEAN_MOTION":15.43823884,"ECCENTRICITY":0.0004819,"INCLINATION":97.37,"RA_OF_ASC_NODE":278.2646,"ARG_OF_PERICENTER":164.5778,"MEAN_ANOMALY":195.5618,"EPHEMERIS_TYPE":0,"NORAD_CAT_ID":60501,"ELEMENT_SET_NO":999,"REV_AT_EPOCH":10630,"BSTAR":0.00031155,"MEAN_MOTION_DOT":0.0001404,"MEAN_MOTION_DDOT":0},{"OBJECT_NAME":"FLOCK 4BE-24","OBJECT_ID":"2024-149AP","EPOCH":"2026-07-12T18:37:43.001760","CLASSIFICATION_TYPE":"U","MEAN_MOTION":15.44037965,"ECCENTRICITY":0.0004802,"INCLINATION":97.3717,"RA_OF_ASC_NODE":278.5154,"ARG_OF_PERICENTER":176.9506,"MEAN_ANOMALY":183.1772,"EPHEMERIS_TYPE":0,"NORAD_CAT_ID":60505,"ELEMENT_SET_NO":999,"REV_AT_EPOCH":10631,"BSTAR":0.00034929,"MEAN_MOTION_DOT":0.00015869,"MEAN_MOTION_DDOT":0},{"OBJECT_NAME":"FLOCK 4BE-29","OBJECT_ID":"2024-149AT","EPOCH":"2026-07-12T18:27:41.981760","CLASSIFICATION_TYPE":"U","MEAN_MOTION":15.4534213,"ECCENTRICITY":0.0003286,"INCLINATION":97.3809,"RA_OF_ASC_NODE":280.0431,"ARG_OF_PERICENTER":178.7826,"MEAN_ANOMALY":181.3431,"EPHEMERIS_TYPE":0,"NORAD_CAT_ID":60509,"ELEMENT_SET_NO":999,"REV_AT_EPOCH":10636,"BSTAR":0.00076848,"MEAN_MOTION_DOT":0.00036693,"MEAN_MOTION_DDOT":0},{"OBJECT_NAME":"FLOCK 4BE-2","OBJECT_ID":"2024-149AV","EPOCH":"2026-07-12T00:59:44.627136","CLASSIFICATION_TYPE":"U","MEAN_MOTION":15.55608654,"ECCENTRICITY":0.00051443,"INCLINATION":97.3833,"RA_OF_ASC_NODE":281.0962,"ARG_OF_PERICENTER":180.9826,"MEAN_ANOMALY":179.142,"EPHEMERIS_TYPE":0,"NORAD_CAT_ID":60511,"ELEMENT_SET_NO":999,"REV_AT_EPOCH":10636,"BSTAR":0.00065246971,"MEAN_MOTION_DOT":0.0004483,"MEAN_MOTION_DDOT":0},{"OBJECT_NAME":"FLOCK 4BE-13","OBJECT_ID":"2024-149AW","EPOCH":"2026-07-12T18:50:14.712000","CLASSIFICATION_TYPE":"U","MEAN_MOTION":15.42573518,"ECCENTRICITY":0.000493,"INCLINATION":97.3723,"RA_OF_ASC_NODE":278.4733,"ARG_OF_PERICENTER":162.9128,"MEAN_ANOMALY":197.2286,"EPHEMERIS_TYPE":0,"NORAD_CAT_ID":60512,"ELEMENT_SET_NO":999,"REV_AT_EPOCH":10631,"BSTAR":0.0002443,"MEAN_MOTION_DOT":0.00010533,"MEAN_MOTION_DDOT":0},{"OBJECT_NAME":"FLOCK 4BE-27","OBJECT_ID":"2024-149AX","EPOCH":"2026-07-12T18:05:43.586016","CLASSIFICATION_TYPE":"U","MEAN_MOTION":15.34889413,"ECCENTRICITY":0.0003725,"INCLINATION":97.3827,"RA_OF_ASC_NODE":275.6235,"ARG_OF_PERICENTER":189.8729,"MEAN_ANOMALY":170.2442,"EPHEMERIS_TYPE":0,"NORAD_CAT_ID":60513,"ELEMENT_SET_NO":999,"REV_AT_EPOCH":10606,"BSTAR":0.00018739,"MEAN_MOTION_DOT":0.0000626,"MEAN_MOTION_DDOT":0},{"OBJECT_NAME":"FLOCK 4BE-9","OBJECT_ID":"2024-149AY","EPOCH":"2026-07-12T16:07:16.453344","CLASSIFICATION_TYPE":"U","MEAN_MOTION":15.41542438,"ECCENTRICITY":0.0003563,"INCLINATION":97.38,"RA_OF_ASC_NODE":278.2012,"ARG_OF_PERICENTER":176.7939,"MEAN_ANOMALY":183.3331,"EPHEMERIS_TYPE":0,"NORAD_CAT_ID":60514,"ELEMENT_SET_NO":999,"REV_AT_EPOCH":10624,"BSTAR":0.00023602,"MEAN_MOTION_DOT":0.00009825,"MEAN_MOTION_DDOT":0},{"OBJECT_NAME":"FLOCK 4BE-6","OBJECT_ID":"2024-149BA","EPOCH":"2026-07-12T18:51:57.341376","CLASSIFICATION_TYPE":"U","MEAN_MOTION":15.40274107,"ECCENTRICITY":0.0004166,"INCLINATION":97.3792,"RA_OF_ASC_NODE":277.6273,"ARG_OF_PERICENTER":181.2202,"MEAN_ANOMALY":178.9035,"EPHEMERIS_TYPE":0,"NORAD_CAT_ID":60516,"ELEMENT_SET_NO":999,"REV_AT_EPOCH":10621,"BSTAR":0.00026142,"MEAN_MOTION_DOT":0.00010444,"MEAN_MOTION_DDOT":0},{"OBJECT_NAME":"FLOCK 4BE-14","OBJECT_ID":"2024-149BB","EPOCH":"2026-07-12T17:53:22.248096","CLASSIFICATION_TYPE":"U","MEAN_MOTION":15.41804338,"ECCENTRICITY":0.0005084,"INCLINATION":97.3699,"RA_OF_ASC_NODE":277.7467,"ARG_OF_PERICENTER":184.6362,"MEAN_ANOMALY":175.4839,"EPHEMERIS_TYPE":0,"NORAD_CAT_ID":60517,"ELEMENT_SET_NO":999,"REV_AT_EPOCH":10626,"BSTAR":0.00030497,"MEAN_MOTION_DOT":0.00012839,"MEAN_MOTION_DDOT":0},{"OBJECT_NAME":"FLOCK 4BE-1","OBJECT_ID":"2024-149BC","EPOCH":"2026-07-12T17:37:30.934848","CLASSIFICATION_TYPE":"U","MEAN_MOTION":15.43453585,"ECCENTRICITY":0.0004786,"INCLINATION":97.3783,"RA_OF_ASC_NODE":279.1056,"ARG_OF_PERICENTER":183.5016,"MEAN_ANOMALY":176.6199,"EPHEMERIS_TYPE":0,"NORAD_CAT_ID":60518,"ELEMENT_SET_NO":999,"REV_AT_EPOCH":10631,"BSTAR":0.00028117,"MEAN_MOTION_DOT":0.00012502,"MEAN_MOTION_DDOT":0},{"OBJECT_NAME":"FLOCK 4BE-28","OBJECT_ID":"2024-149BD","EPOCH":"2026-07-12T18:34:20.188128","CLASSIFICATION_TYPE":"U","MEAN_MOTION":15.46154633,"ECCENTRICITY":0.0004725,"INCLINATION":97.3756,"RA_OF_ASC_NODE":279.9525,"ARG_OF_PERICENTER":182.0589,"MEAN_ANOMALY":178.0642,"EPHEMERIS_TYPE":0,"NORAD_CAT_ID":60519,"ELEMENT_SET_NO":999,"REV_AT_EPOCH":10639,"BSTAR":0.00076836,"MEAN_MOTION_DOT":0.00037733,"MEAN_MOTION_DDOT":0},{"OBJECT_NAME":"FLOCK 4BE-5","OBJECT_ID":"2024-149CV","EPOCH":"2026-07-12T17:56:25.607904","CLASSIFICATION_TYPE":"U","MEAN_MOTION":15.40994442,"ECCENTRICITY":0.0003803,"INCLINATION":97.385,"RA_OF_ASC_NODE":278.0047,"ARG_OF_PERICENTER":178.8953,"MEAN_ANOMALY":181.2302,"EPHEMERIS_TYPE":0,"NORAD_CAT_ID":60559,"ELEMENT_SET_NO":999,"REV_AT_EPOCH":10621,"BSTAR":0.00027018,"MEAN_MOTION_DOT":0.00011058,"MEAN_MOTION_DDOT":0}]}
